ONEWEB-0665             
1 55825U 23029AF  24335.88676552  .00000138  00000+0  33895-3 0  9997
2 55825  87.9028  41.7389 0001709  91.1559 268.9766 13.14501034 85403
ONEWEB-0666             
1 55826U 23029AG  24335.85765388 -.00000944  00000+0 -23549-2 0  9992
2 55826  87.9263  26.5535 0002164 106.0737 254.0635 13.20775759 86797
ONEWEB-0667             
1 55827U 23029AH  24335.85136166 -.00000868  00000+0 -21675-2 0  9992
2 55827  87.9280  26.4878 0001908  93.4944 266.6408 13.20760600 86785
ONEWEB-0669             
1 55828U 23029AJ  24335.39206943  .00000056  00000+0  10584-3 0  9998
2 55828  87.9278  26.6158 0002623 108.4079 251.7340 13.20769868 86726
ONEWEB-0670             
1 55829U 23029AK  24335.48398087  .00000314  00000+0  81363-3 0  9990
2 55829  87.9031  41.8303 0002117  90.2547 269.8825 13.14502161 85373
ONEWEB-0671             
1 55830U 23029AL  24335.51727838  .00000163  00000+0  37450-3 0  9996
2 55830  87.9194  57.0651 0002046  93.6189 266.5178 13.19723921 84558
ONEWEB-0672             
1 55831U 23029AM  24335.84186682  .00000078  00000+0  16060-3 0  9998
2 55831  87.9276  26.5110 0001951 109.2131 250.9214 13.20769387 86789
ONEWEB-0673             
1 55832U 23029AN  24335.49358208  .00001052  00000+0  25946-2 0  9990
2 55832  87.9189  57.0343 0001597  91.5012 268.6303 13.19733414 84555
